start=new Date('2023-04-01T00:00:00.000Z').valueOf();
sats=[{"REF_FRAME":"TEME","TLE_LINE1":"1 46356U 20062AH  23090.55958432  .00036726  00000-0  24725-2 0  9995","RA_OF_ASC_NODE":"158.5671","SITE":"AFETR","RCS_SIZE":"LARGE","CLASSIFICATION_TYPE":"U","PERIOD":"95.593","TIME_SYSTEM":"UTC","ELEMENT_SET_NO":"999","EPOCH":"2023-03-31T13:25:48.085248","ARG_OF_PERICENTER":"84.9884","TLE_LINE2":"2 46356  53.0516 158.5671 0001320  84.9884 275.1255 15.06386808142599","MEAN_MOTION":"15.06386808","ECCENTRICITY":"0.00013200","GP_ID":"229196474","MEAN_ELEMENT_THEORY":"SGP4","NORAD_CAT_ID":"46356","APOAPSIS":"548.168","COUNTRY_CODE":"US","LAUNCH_DATE":"2020-09-03","DECAY_DATE":null,"OBJECT_ID":"2020-062AH","INCLINATION":"53.0516","OBJECT_NAME":"STARLINK-1665","MEAN_ANOMALY":"275.1255","EPHEMERIS_TYPE":"0","OBJECT_TYPE":"PAYLOAD","REV_AT_EPOCH":"14259","PERIAPSIS":"546.340","BSTAR":"0.00247250000000","MEAN_MOTION_DDOT":"0.0000000000000","FILE":"3876137","CENTER_NAME":"EARTH","SEMIMAJOR_AXIS":"6925.389","MEAN_MOTION_DOT":"0.00036726"},{"MEAN_MOTION":"15.06361217","ECCENTRICITY":"0.00011650","GP_ID":"229196591","MEAN_ELEMENT_THEORY":"SGP4","TIME_SYSTEM":"UTC","ELEMENT_SET_NO":"999","EPOCH":"2023-03-31T08:37:49.585152","TLE_LINE2":"2 46357  53.0538 139.4710 0001165 112.2865 247.8248 15.06361217142840","ARG_OF_PERICENTER":"112.2865","RCS_SIZE":"LARGE","CLASSIFICATION_TYPE":"U","PERIOD":"95.595","REF_FRAME":"TEME","TLE_LINE1":"1 46357U 20062AJ  23090.35960168  .00029873  00000-0  20180-2 0  9999","RA_OF_ASC_NODE":"139.4710","SITE":"AFETR","BSTAR":"0.00201800000000","MEAN_MOTION_DDOT":"0.0000000000000","FILE":"3876139","CENTER_NAME":"EARTH","SEMIMAJOR_AXIS":"6925.467","MEAN_MOTION_DOT":"0.00029873","OBJECT_TYPE":"PAYLOAD","REV_AT_EPOCH":"14284","PERIAPSIS":"546.526","LAUNCH_DATE":"2020-09-03","COUNTRY_CODE":"US","DECAY_DATE":null,"OBJECT_ID":"2020-062AJ","EPHEMERIS_TYPE":"0","INCLINATION":"53.0538","MEAN_ANOMALY":"247.8248","OBJECT_NAME":"STARLINK-1666","NORAD_CAT_ID":"46357","APOAPSIS":"548.139"},{"SEMIMAJOR_AXIS":"6925.519","CENTER_NAME":"EARTH","MEAN_MOTION_DOT":"0.00014064","MEAN_MOTION_DDOT":"0.0000000000000","BSTAR":"0.00096262000000","FILE":"3876152","PERIAPSIS":"546.486","OBJECT_TYPE":"PAYLOAD","REV_AT_EPOCH":"14258","OBJECT_ID":"2020-062AK","INCLINATION":"53.0517","OBJECT_NAME":"STARLINK-1690","EPHEMERIS_TYPE":"0","MEAN_ANOMALY":"298.6416","LAUNCH_DATE":"2020-09-03","COUNTRY_CODE":"US","DECAY_DATE":null,"NORAD_CAT_ID":"46358","APOAPSIS":"548.281","GP_ID":"229196937","ECCENTRICITY":"0.00012960","MEAN_ELEMENT_THEORY":"SGP4","MEAN_MOTION":"15.06344523","TLE_LINE2":"2 46358  53.0517 158.9678 0001296  61.4703 298.6416 15.06344523142581","ARG_OF_PERICENTER":"61.4703","ELEMENT_SET_NO":"999","EPOCH":"2023-03-31T11:19:43.676256","TIME_SYSTEM":"UTC","CLASSIFICATION_TYPE":"U","PERIOD":"95.596","RCS_SIZE":"LARGE","RA_OF_ASC_NODE":"158.9678","SITE":"AFETR","REF_FRAME":"TEME","TLE_LINE1":"1 46358U 20062AK  23090.47203329  .00014064  00000-0  96262-3 0  9993"},{"TLE_LINE2":"2 46359  53.0542 112.5670 0001637  87.8209 272.2967 15.06408104143250","ARG_OF_PERICENTER":"87.8209","TIME_SYSTEM":"UTC","EPOCH":"2023-03-31T18:48:55.159200","ELEMENT_SET_NO":"999","GP_ID":"229204622","ECCENTRICITY":"0.00016370","MEAN_ELEMENT_THEORY":"SGP4","MEAN_MOTION":"15.06408104","RA_OF_ASC_NODE":"112.5670","SITE":"AFETR","REF_FRAME":"TEME","TLE_LINE1":"1 46359U 20062AL  23090.78397175  .00008747  00000-0  60527-3 0  9997","CLASSIFICATION_TYPE":"U","PERIOD":"95.592","RCS_SIZE":"LARGE","PERIAPSIS":"546.055","OBJECT_TYPE":"PAYLOAD","REV_AT_EPOCH":"14325","CENTER_NAME":"EARTH","SEMIMAJOR_AXIS":"6925.324","MEAN_MOTION_DOT":"0.00008747","BSTAR":"0.00060527000000","MEAN_MOTION_DDOT":"0.0000000000000","FILE":"3876465","NORAD_CAT_ID":"46359","APOAPSIS":"548.322","OBJECT_ID":"2020-062AL","MEAN_ANOMALY":"272.2967","INCLINATION":"53.0542","OBJECT_NAME":"STARLINK-1707","EPHEMERIS_TYPE":"0","LAUNCH_DATE":"2020-09-03","COUNTRY_CODE":"US","DECAY_DATE":null},{"SITE":"AFETR","RA_OF_ASC_NODE":"115.7438","TLE_LINE1":"1 46360U 20062AM  23090.07626528  .00027673  00000-0  18684-2 0  9993","REF_FRAME":"TEME","PERIOD":"95.591","CLASSIFICATION_TYPE":"U","RCS_SIZE":"LARGE","ARG_OF_PERICENTER":"99.5801","TLE_LINE2":"2 46360  53.0530 115.7438 0001414  99.5801 260.5347 15.06420092143158","TIME_SYSTEM":"UTC","ELEMENT_SET_NO":"999","EPOCH":"2023-03-31T01:49:49.320192","MEAN_ELEMENT_THEORY":"SGP4","GP_ID":"229189569","ECCENTRICITY":"0.00014140","MEAN_MOTION":"15.06420092","APOAPSIS":"548.131","NORAD_CAT_ID":"46360","OBJECT_NAME":"STARLINK-1713","EPHEMERIS_TYPE":"0","MEAN_ANOMALY":"260.5347","INCLINATION":"53.0530","OBJECT_ID":"2020-062AM","DECAY_DATE":null,"LAUNCH_DATE":"2020-09-03","COUNTRY_CODE":"US","PERIAPSIS":"546.173","REV_AT_EPOCH":"14315","OBJECT_TYPE":"PAYLOAD","MEAN_MOTION_DOT":"0.00027673","CENTER_NAME":"EARTH","SEMIMAJOR_AXIS":"6925.287","FILE":"3875793","BSTAR":"0.00186840000000","MEAN_MOTION_DDOT":"0.0000000000000"},{"PERIAPSIS":"546.464","REV_AT_EPOCH":"14324","OBJECT_TYPE":"PAYLOAD","MEAN_MOTION_DOT":"0.00007041","CENTER_NAME":"EARTH","SEMIMAJOR_AXIS":"6925.344","FILE":"3876472","BSTAR":"0.00049106000000","MEAN_MOTION_DDOT":"0.0000000000000","APOAPSIS":"547.954","NORAD_CAT_ID":"46361","MEAN_ANOMALY":"271.1120","OBJECT_NAME":"STARLINK-1722","INCLINATION":"53.0547","EPHEMERIS_TYPE":"0","OBJECT_ID":"2020-062AN","DECAY_DATE":null,"LAUNCH_DATE":"2020-09-03","COUNTRY_CODE":"US","ARG_OF_PERICENTER":"88.9992","TLE_LINE2":"2 46361  53.0547 112.5986 0001076  88.9992 271.1120 15.06401481143245","TIME_SYSTEM":"UTC","EPOCH":"2023-03-31T18:36:56.485728","ELEMENT_SET_NO":"999","MEAN_ELEMENT_THEORY":"SGP4","ECCENTRICITY":"0.00010760","GP_ID":"229204901","MEAN_MOTION":"15.06401481","SITE":"AFETR","RA_OF_ASC_NODE":"112.5986","TLE_LINE1":"1 46361U 20062AN  23090.77565377  .00007041  00000-0  49106-3 0  9996","REF_FRAME":"TEME","PERIOD":"95.592","CLASSIFICATION_TYPE":"U","RCS_SIZE":"LARGE"},{"TLE_LINE2":"2 46362  53.0520 118.9534 0001506 102.8989 257.2168 15.06386020142861","ARG_OF_PERICENTER":"102.8989","ELEMENT_SET_NO":"999","EPOCH":"2023-03-30T08:40:07.357728","TIME_SYSTEM":"UTC","MEAN_ELEMENT_THEORY":"SGP4","GP_ID":"229180139","ECCENTRICITY":"0.00015060","MEAN_MOTION":"15.06386020","SITE":"AFETR","RA_OF_ASC_NODE":"118.9534","TLE_LINE1":"1 46362U 20062AP  23089.36119627  .00024532  00000-0  16607-2 0  9996","REF_FRAME":"TEME","PERIOD":"95.593","CLASSIFICATION_TYPE":"U","RCS_SIZE":"LARGE","PERIAPSIS":"546.213","REV_AT_EPOCH":"14286","OBJECT_TYPE":"PAYLOAD","MEAN_MOTION_DOT":"0.00024532","SEMIMAJOR_AXIS":"6925.391","CENTER_NAME":"EARTH","FILE":"3875726","MEAN_MOTION_DDOT":"0.0000000000000","BSTAR":"0.00166070000000","APOAPSIS":"548.299","NORAD_CAT_ID":"46362","EPHEMERIS_TYPE":"0","OBJECT_NAME":"STARLINK-1726","MEAN_ANOMALY":"257.2168","INCLINATION":"53.0520","OBJECT_ID":"2020-062AP","DECAY_DATE":null,"LAUNCH_DATE":"2020-09-03","COUNTRY_CODE":"US"},{"MEAN_ELEMENT_THEORY":"SGP4","GP_ID":"229204759","ECCENTRICITY":"0.00015480","MEAN_MOTION":"15.06428812","ARG_OF_PERICENTER":"68.7935","TLE_LINE2":"2 46363  53.0541 113.9174 0001548  68.7935 291.3219 15.06428812143185","TIME_SYSTEM":"UTC","EPOCH":"2023-03-31T11:32:19.418784","ELEMENT_SET_NO":"999","PERIOD":"95.590","CLASSIFICATION_TYPE":"U","RCS_SIZE":"LARGE","SITE":"AFETR","RA_OF_ASC_NODE":"113.9174","TLE_LINE1":"1 46363U 20062AQ  23090.48078031  .00027073  00000-0  18280-2 0  9997","REF_FRAME":"TEME","MEAN_MOTION_DOT":"0.00027073","CENTER_NAME":"EARTH","SEMIMAJOR_AXIS":"6925.260","FILE":"3876475","BSTAR":"0.00182800000000","MEAN_MOTION_DDOT":"0.0000000000000","PERIAPSIS":"546.053","REV_AT_EPOCH":"14318","OBJECT_TYPE":"PAYLOAD","EPHEMERIS_TYPE":"0","OBJECT_NAME":"STARLINK-1739","INCLINATION":"53.0541","MEAN_ANOMALY":"291.3219","OBJECT_ID":"2020-062AQ","DECAY_DATE":null,"COUNTRY_CODE":"US","LAUNCH_DATE":"2020-09-03","APOAPSIS":"548.197","NORAD_CAT_ID":"46363"},{"MEAN_MOTION":"15.06445511","GP_ID":"229197110","ECCENTRICITY":"0.00015620","MEAN_ELEMENT_THEORY":"SGP4","EPOCH":"2023-03-31T11:36:24.149376","ELEMENT_SET_NO":"999","TIME_SYSTEM":"UTC","ARG_OF_PERICENTER":"104.6382","TLE_LINE2":"2 46364  53.0541  94.4230 0001562 104.6382 255.4780 15.06445511143486","RCS_SIZE":"LARGE","CLASSIFICATION_TYPE":"U","PERIOD":"95.589","REF_FRAME":"TEME","TLE_LINE1":"1 46364U 20062AR  23090.48361284  .00026167  00000-0  17669-2 0  9996","RA_OF_ASC_NODE":"94.4230","SITE":"AFETR","MEAN_MOTION_DDOT":"0.0000000000000","BSTAR":"0.00176690000000","FILE":"3876168","SEMIMAJOR_AXIS":"6925.209","CENTER_NAME":"EARTH","MEAN_MOTION_DOT":"0.00026167","OBJECT_TYPE":"PAYLOAD","REV_AT_EPOCH":"14348","PERIAPSIS":"545.992","COUNTRY_CODE":"US","LAUNCH_DATE":"2020-09-03","DECAY_DATE":null,"OBJECT_ID":"2020-062AR","OBJECT_NAME":"STARLINK-1763","MEAN_ANOMALY":"255.4780","INCLINATION":"53.0541","EPHEMERIS_TYPE":"0","NORAD_CAT_ID":"46364","APOAPSIS":"548.156"},{"PERIAPSIS":"545.869","OBJECT_TYPE":"PAYLOAD","REV_AT_EPOCH":"14323","CENTER_NAME":"EARTH","SEMIMAJOR_AXIS":"6925.249","MEAN_MOTION_DOT":"0.00004333","BSTAR":"0.00030934000000","MEAN_MOTION_DDOT":"0.0000000000000","FILE":"3876419","NORAD_CAT_ID":"46365","APOAPSIS":"548.359","OBJECT_ID":"2020-062AS","OBJECT_NAME":"STARLINK-1550","EPHEMERIS_TYPE":"0","INCLINATION":"53.0524","MEAN_ANOMALY":"268.0124","LAUNCH_DATE":"2020-09-03","COUNTRY_CODE":"US","DECAY_DATE":null,"TLE_LINE2":"2 46365  53.0524 112.5344 0001798  92.1070 268.0124 15.06432449143233","ARG_OF_PERICENTER":"92.1070","TIME_SYSTEM":"UTC","EPOCH":"2023-03-31T18:59:31.528032","ELEMENT_SET_NO":"999","GP_ID":"229203610","ECCENTRICITY":"0.00017980","MEAN_ELEMENT_THEORY":"SGP4","MEAN_MOTION":"15.06432449","RA_OF_ASC_NODE":"112.5344","SITE":"AFETR","REF_FRAME":"TEME","TLE_LINE1":"1 46365U 20062AS  23090.79133713  .00004333  00000-0  30934-3 0  9997","CLASSIFICATION_TYPE":"U","PERIOD":"95.590","RCS_SIZE":"LARGE"}];
